TEVEL2-2                
1 63219U 25052K   26068.64848259  .00020339  00000+0  69428-3 0  9991
2 63219  97.3987 324.7700 0004693 105.7930 254.3828 15.30343745 54855
STARLINK-35589          
1 66426U 25259E   26068.57538554  .00024330  00000+0  89058-3 0  9995
2 66426  42.9999 275.0108 0001843 261.7628  98.3015 15.27585849 19470
